[{"OBJECT_NAME":"STARLINK-6311","OBJECT_ID":"2023-065AL","EPOCH":"2026-03-09T11:49:28.867008","MEAN_MOTION":15.02537066,"ECCENTRICITY":0.00011234,"INCLINATION":43.001,"RA_OF_ASC_NODE":224.5536,"ARG_OF_PERICENTER":261.3732,"MEAN_ANOMALY":98.6983,"EPHEMERIS_TYPE":0,"CLASSIFICATION_TYPE":"U","NORAD_CAT_ID":56537,"ELEMENT_SET_NO":999,"REV_AT_EPOCH":15644,"BSTAR":4.2513796e-5,"MEAN_MOTION_DOT":3.71e-6,"MEAN_MOTION_DDOT":0},{"OBJECT_NAME":"PSLV R\/B","OBJECT_ID":"2018-071C","EPOCH":"2026-03-09T22:40:07.416192","MEAN_MOTION":15.00058604,"ECCENTRICITY":0.00237177,"INCLINATION":97.444,"RA_OF_ASC_NODE":249.6196,"ARG_OF_PERICENTER":104.8167,"MEAN_ANOMALY":255.5687,"EPHEMERIS_TYPE":0,"CLASSIFICATION_TYPE":"U","NORAD_CAT_ID":43620,"ELEMENT_SET_NO":999,"REV_AT_EPOCH":40754,"BSTAR":0.00020356401,"MEAN_MOTION_DOT":2.493e-5,"MEAN_MOTION_DDOT":0}]
